[{"OBJECT_NAME":"FIREFLY-2","OBJECT_ID":"2025-009CZ","EPOCH":"2026-03-09T22:24:38.361312","MEAN_MOTION":14.92843257,"ECCENTRICITY":0.00067637,"INCLINATION":97.7072,"RA_OF_ASC_NODE":148.9368,"ARG_OF_PERICENTER":55.6138,"MEAN_ANOMALY":304.572,"EPHEMERIS_TYPE":0,"CLASSIFICATION_TYPE":"U","NORAD_CAT_ID":62704,"ELEMENT_SET_NO":999,"REV_AT_EPOCH":6251,"BSTAR":0.00017361012,"MEAN_MOTION_DOT":1.742e-5,"MEAN_MOTION_DDOT":0},{"OBJECT_NAME":"SHIYAN-30 02","OBJECT_ID":"2025-222B","EPOCH":"2026-03-09T20:48:28.945152","MEAN_MOTION":14.93183187,"ECCENTRICITY":0.00052159,"INCLINATION":34.9961,"RA_OF_ASC_NODE":137.653,"ARG_OF_PERICENTER":257.9316,"MEAN_ANOMALY":102.0805,"EPHEMERIS_TYPE":0,"CLASSIFICATION_TYPE":"U","NORAD_CAT_ID":65852,"ELEMENT_SET_NO":999,"REV_AT_EPOCH":2417,"BSTAR":0.0003172838,"MEAN_MOTION_DOT":3.351e-5,"MEAN_MOTION_DDOT":0}]
